CCSDS_OMM_VERS = 2.0
CREATION_DATE  = 
ORIGINATOR     = 

OBJECT_NAME    = STARLINK-36522
OBJECT_ID      = 2026-008S
CENTER_NAME    = EARTH
REF_FRAME      = TEME
TIME_SYSTEM    = UTC
MEAN_ELEMENT_THEORY = SGP/SGP4

EPOCH          = 2026-01-24T04:00:00.999936
MEAN_MOTION    = 15.95062462
ECCENTRICITY   = .0001409
INCLINATION    = 43.0016
RA_OF_ASC_NODE = 104.2395
ARG_OF_PERICENTER = 275.6767
MEAN_ANOMALY   = 195.5364

EPHEMERIS_TYPE = 0
CLASSIFICATION_TYPE = U
NORAD_CAT_ID   = 67461
ELEMENT_SET_NO = 999
REV_AT_EPOCH   = 263
BSTAR          = -.28133E-2
MEAN_MOTION_DOT = -.1138127E-1
MEAN_MOTION_DDOT = .39451E-3

CCSDS_OMM_VERS = 2.0
CREATION_DATE  = 
ORIGINATOR     = 

OBJECT_NAME    = STARLINK-36504
OBJECT_ID      = 2026-008T
CENTER_NAME    = EARTH
REF_FRAME      = TEME
TIME_SYSTEM    = UTC
MEAN_ELEMENT_THEORY = SGP/SGP4

EPOCH          = 2026-01-24T04:00:00.999936
MEAN_MOTION    = 15.95159936
ECCENTRICITY   = .000151
INCLINATION    = 43.0017
RA_OF_ASC_NODE = 104.2323
ARG_OF_PERICENTER = 273.4943
MEAN_ANOMALY   = 200.5097

EPHEMERIS_TYPE = 0
CLASSIFICATION_TYPE = U
NORAD_CAT_ID   = 67462
ELEMENT_SET_NO = 999
REV_AT_EPOCH   = 265
BSTAR          = -.2854E-2
MEAN_MOTION_DOT = -.1160479E-1
MEAN_MOTION_DDOT = .40918E-3

CCSDS_OMM_VERS = 2.0
CREATION_DATE  = 
ORIGINATOR     = 

OBJECT_NAME    = STARLINK-36505
OBJECT_ID      = 2026-008U
CENTER_NAME    = EARTH
REF_FRAME      = TEME
TIME_SYSTEM    = UTC
MEAN_ELEMENT_THEORY = SGP/SGP4

EPOCH          = 2026-01-24T04:00:00.999936
MEAN_MOTION    = 15.95245967
ECCENTRICITY   = .000143
INCLINATION    = 43.0020
RA_OF_ASC_NODE = 104.2250
ARG_OF_PERICENTER = 275.0207
MEAN_ANOMALY   = 201.9128

EPHEMERIS_TYPE = 0
CLASSIFICATION_TYPE = U
NORAD_CAT_ID   = 67463
ELEMENT_SET_NO = 999
REV_AT_EPOCH   = 263
BSTAR          = -.28553E-2
MEAN_MOTION_DOT = -.1166349E-1
MEAN_MOTION_DDOT = .41333E-3

CCSDS_OMM_VERS = 2.0
CREATION_DATE  = 
ORIGINATOR     = 

OBJECT_NAME    = STARLINK-36421
OBJECT_ID      = 2026-008V
CENTER_NAME    = EARTH
REF_FRAME      = TEME
TIME_SYSTEM    = UTC
MEAN_ELEMENT_THEORY = SGP/SGP4

EPOCH          = 2026-01-24T04:00:00.999936
MEAN_MOTION    = 15.95328814
ECCENTRICITY   = .0001375
INCLINATION    = 43.0019
RA_OF_ASC_NODE = 104.2175
ARG_OF_PERICENTER = 274.4207
MEAN_ANOMALY   = 205.5522

EPHEMERIS_TYPE = 0
CLASSIFICATION_TYPE = U
NORAD_CAT_ID   = 67464
ELEMENT_SET_NO = 999
REV_AT_EPOCH   = 263
BSTAR          = -.28638E-2
MEAN_MOTION_DOT = -.1174964E-1
MEAN_MOTION_DDOT = .41927E-3

CCSDS_OMM_VERS = 2.0
CREATION_DATE  = 
ORIGINATOR     = 

OBJECT_NAME    = STARLINK-36437
OBJECT_ID      = 2026-008W
CENTER_NAME    = EARTH
REF_FRAME      = TEME
TIME_SYSTEM    = UTC
MEAN_ELEMENT_THEORY = SGP/SGP4

EPOCH          = 2026-01-24T04:00:00.999936
MEAN_MOTION    = 15.95403079
ECCENTRICITY   = .0001335
INCLINATION    = 43.0018
RA_OF_ASC_NODE = 104.2108
ARG_OF_PERICENTER = 273.9050
MEAN_ANOMALY   = 208.5510

EPHEMERIS_TYPE = 0
CLASSIFICATION_TYPE = U
NORAD_CAT_ID   = 67465
ELEMENT_SET_NO = 999
REV_AT_EPOCH   = 263
BSTAR          = -.28797E-2
MEAN_MOTION_DOT = -.1186118E-1
MEAN_MOTION_DDOT = .42689E-3

CCSDS_OMM_VERS = 2.0
CREATION_DATE  = 
ORIGINATOR     = 

OBJECT_NAME    = STARLINK-36520
OBJECT_ID      = 2026-008X
CENTER_NAME    = EARTH
REF_FRAME      = TEME
TIME_SYSTEM    = UTC
MEAN_ELEMENT_THEORY = SGP/SGP4

EPOCH          = 2026-01-24T04:00:00.999936
MEAN_MOTION    = 15.95481430
ECCENTRICITY   = .0001449
INCLINATION    = 43.0018
RA_OF_ASC_NODE = 104.2036
ARG_OF_PERICENTER = 269.5732
MEAN_ANOMALY   = 215.6870

EPHEMERIS_TYPE = 0
CLASSIFICATION_TYPE = U
NORAD_CAT_ID   = 67466
ELEMENT_SET_NO = 999
REV_AT_EPOCH   = 263
BSTAR          = -.28834E-2
MEAN_MOTION_DOT = -.1192682E-1
MEAN_MOTION_DDOT = .43156E-3

CCSDS_OMM_VERS = 2.0
CREATION_DATE  = 
ORIGINATOR     = 

OBJECT_NAME    = STARLINK-36425
OBJECT_ID      = 2026-008Y
CENTER_NAME    = EARTH
REF_FRAME      = TEME
TIME_SYSTEM    = UTC
MEAN_ELEMENT_THEORY = SGP/SGP4

EPOCH          = 2026-01-24T04:00:00.999936
MEAN_MOTION    = 15.95557431
ECCENTRICITY   = .0001432
INCLINATION    = 43.0016
RA_OF_ASC_NODE = 104.1972
ARG_OF_PERICENTER = 269.7974
MEAN_ANOMALY   = 217.9740

EPHEMERIS_TYPE = 0
CLASSIFICATION_TYPE = U
NORAD_CAT_ID   = 67467
ELEMENT_SET_NO = 999
REV_AT_EPOCH   = 263
BSTAR          = -.2897E-2
MEAN_MOTION_DOT = -.1203133E-1
MEAN_MOTION_DDOT = .43884E-3

CCSDS_OMM_VERS = 2.0
CREATION_DATE  = 
ORIGINATOR     = 

OBJECT_NAME    = STARLINK-36414
OBJECT_ID      = 2026-008Z
CENTER_NAME    = EARTH
REF_FRAME      = TEME
TIME_SYSTEM    = UTC
MEAN_ELEMENT_THEORY = SGP/SGP4

EPOCH          = 2026-01-24T04:00:00.999936
MEAN_MOTION    = 15.96866818
ECCENTRICITY   = .0001625
INCLINATION    = 43.0017
RA_OF_ASC_NODE = 104.1111
ARG_OF_PERICENTER = 267.7665
MEAN_ANOMALY   = 253.8476

EPHEMERIS_TYPE = 0
CLASSIFICATION_TYPE = U
NORAD_CAT_ID   = 67468
ELEMENT_SET_NO = 999
REV_AT_EPOCH   = 263
BSTAR          = -.24465E-2
MEAN_MOTION_DOT = -.1092686E-1
MEAN_MOTION_DDOT = .373E-3

CCSDS_OMM_VERS = 2.0
CREATION_DATE  = 
ORIGINATOR     = 

OBJECT_NAME    = STARLINK-36441
OBJECT_ID      = 2026-008AA
CENTER_NAME    = EARTH
REF_FRAME      = TEME
TIME_SYSTEM    = UTC
MEAN_ELEMENT_THEORY = SGP/SGP4

EPOCH          = 2026-01-24T04:00:00.999936
MEAN_MOTION    = 15.97350215
ECCENTRICITY   = .000127
INCLINATION    = 43.0016
RA_OF_ASC_NODE = 104.0696
ARG_OF_PERICENTER = 274.9690
MEAN_ANOMALY   = 262.9015

EPHEMERIS_TYPE = 0
CLASSIFICATION_TYPE = U
NORAD_CAT_ID   = 67469
ELEMENT_SET_NO = 999
REV_AT_EPOCH   = 263
BSTAR          = -.25295E-2
MEAN_MOTION_DOT = -.1159588E-1
MEAN_MOTION_DDOT = .41784E-3

CCSDS_OMM_VERS = 2.0
CREATION_DATE  = 
ORIGINATOR     = 

OBJECT_NAME    = STARLINK-36454
OBJECT_ID      = 2026-008AB
CENTER_NAME    = EARTH
REF_FRAME      = TEME
TIME_SYSTEM    = UTC
MEAN_ELEMENT_THEORY = SGP/SGP4

EPOCH          = 2026-01-24T04:00:00.999936
MEAN_MOTION    = 15.97560331
ECCENTRICITY   = .0001416
INCLINATION    = 43.0013
RA_OF_ASC_NODE = 104.0521
ARG_OF_PERICENTER = 271.0413
MEAN_ANOMALY   = 273.6617

EPHEMERIS_TYPE = 0
CLASSIFICATION_TYPE = U
NORAD_CAT_ID   = 67470
ELEMENT_SET_NO = 999
REV_AT_EPOCH   = 263
BSTAR          = -.25785E-2
MEAN_MOTION_DOT = -.1195581E-1
MEAN_MOTION_DDOT = .44281E-3

CCSDS_OMM_VERS = 2.0
CREATION_DATE  = 
ORIGINATOR     = 

OBJECT_NAME    = STARLINK-36334
OBJECT_ID      = 2026-008AC
CENTER_NAME    = EARTH
REF_FRAME      = TEME
TIME_SYSTEM    = UTC
MEAN_ELEMENT_THEORY = SGP/SGP4

EPOCH          = 2026-01-24T04:00:00.999936
MEAN_MOTION    = 15.97093988
ECCENTRICITY   = .0001449
INCLINATION    = 43.0015
RA_OF_ASC_NODE = 104.0914
ARG_OF_PERICENTER = 270.1557
MEAN_ANOMALY   = 259.1236

EPHEMERIS_TYPE = 0
CLASSIFICATION_TYPE = U
NORAD_CAT_ID   = 67471
ELEMENT_SET_NO = 999
REV_AT_EPOCH   = 263
BSTAR          = -.24948E-2
MEAN_MOTION_DOT = -.1127924E-1
MEAN_MOTION_DDOT = .39619E-3

CCSDS_OMM_VERS = 2.0
CREATION_DATE  = 
ORIGINATOR     = 

OBJECT_NAME    = STARLINK-36269
OBJECT_ID      = 2026-008AD
CENTER_NAME    = EARTH
REF_FRAME      = TEME
TIME_SYSTEM    = UTC
MEAN_ELEMENT_THEORY = SGP/SGP4

EPOCH          = 2026-01-24T04:00:00.999936
MEAN_MOTION    = 15.97860401
ECCENTRICITY   = .000128
INCLINATION    = 43.0012
RA_OF_ASC_NODE = 104.0280
ARG_OF_PERICENTER = 273.8075
MEAN_ANOMALY   = 280.2231

EPHEMERIS_TYPE = 0
CLASSIFICATION_TYPE = U
NORAD_CAT_ID   = 67472
ELEMENT_SET_NO = 999
REV_AT_EPOCH   = 265
BSTAR          = -.26573E-2
MEAN_MOTION_DOT = -.1252247E-1
MEAN_MOTION_DDOT = .48344E-3

CCSDS_OMM_VERS = 2.0
CREATION_DATE  = 
ORIGINATOR     = 

OBJECT_NAME    = STARLINK-36408
OBJECT_ID      = 2026-008AE
CENTER_NAME    = EARTH
REF_FRAME      = TEME
TIME_SYSTEM    = UTC
MEAN_ELEMENT_THEORY = SGP/SGP4

EPOCH          = 2026-01-24T04:00:00.999936
MEAN_MOTION    = 15.98256122
ECCENTRICITY   = .0001379
INCLINATION    = 43.0016
RA_OF_ASC_NODE = 103.9925
ARG_OF_PERICENTER = 272.0531
MEAN_ANOMALY   = 296.1455

EPHEMERIS_TYPE = 0
CLASSIFICATION_TYPE = U
NORAD_CAT_ID   = 67473
ELEMENT_SET_NO = 999
REV_AT_EPOCH   = 265
BSTAR          = -.27585E-2
MEAN_MOTION_DOT = -.1328171E-1
MEAN_MOTION_DDOT = .54066E-3

CCSDS_OMM_VERS = 2.0
CREATION_DATE  = 
ORIGINATOR     = 

OBJECT_NAME    = ALSAT-3A
OBJECT_ID      = 2026-009A
CENTER_NAME    = EARTH
REF_FRAME      = TEME
TIME_SYSTEM    = UTC
MEAN_ELEMENT_THEORY = SGP/SGP4

EPOCH          = 2026-01-24T03:28:36.058656
MEAN_MOTION    = 15.23154458
ECCENTRICITY   = .0011313
INCLINATION    = 97.4710
RA_OF_ASC_NODE = 98.8802
ARG_OF_PERICENTER = 226.2901
MEAN_ANOMALY   = 133.7399

EPHEMERIS_TYPE = 0
CLASSIFICATION_TYPE = U
NORAD_CAT_ID   = 67474
ELEMENT_SET_NO = 999
REV_AT_EPOCH   = 137
BSTAR          = .24799E-4
MEAN_MOTION_DOT = .515E-5
MEAN_MOTION_DDOT = 0

CCSDS_OMM_VERS = 2.0
CREATION_DATE  = 
ORIGINATOR     = 

OBJECT_NAME    = CZ-2C R/B
OBJECT_ID      = 2026-009B
CENTER_NAME    = EARTH
REF_FRAME      = TEME
TIME_SYSTEM    = UTC
MEAN_ELEMENT_THEORY = SGP/SGP4

EPOCH          = 2026-01-24T04:48:04.547232
MEAN_MOTION    = 15.02975430
ECCENTRICITY   = .009914
INCLINATION    = 97.1802
RA_OF_ASC_NODE = 98.0060
ARG_OF_PERICENTER = 191.4078
MEAN_ANOMALY   = 168.4902

EPHEMERIS_TYPE = 0
CLASSIFICATION_TYPE = U
NORAD_CAT_ID   = 67475
ELEMENT_SET_NO = 999
REV_AT_EPOCH   = 136
BSTAR          = .46308E-3
MEAN_MOTION_DOT = .6874E-4
MEAN_MOTION_DDOT = 0

